[Satellite]
VERSION=1.1
NAME=CZ-6A DEB
NICKNAME=CZ-6A DEB
TLE1=1 54356U 22151DB  22342.50995439  .00002942  00000+0  12820-2 0  9992
TLE2=2 54356  98.9587 348.5728 0080397 253.6856 105.5468 14.23044604  3213
STATUS=0
